0 METEOR 1-26
1 09481U 76102A   13281.83327220  .00000119  00000-0  60627-4 0  5048
2 09481 081.2167 247.1490 0022882 051.6549 028.8804 14.09532729900896
0 METEOR 1-26
1 09481U 76102A   13283.12027255  .00000128  00000-0  66164-4 0  5050
2 09481 081.2169 245.8933 0022857 048.3416 079.2081 14.09533210901077
0 METEOR 1-26
1 09481U 76102A   13284.47134897  .00000147  00000-0  76968-4 0  5065
2 09481 081.2171 244.5751 0022836 044.8448 094.6819 14.09533634901268
0 METEOR 1-26
1 09481U 76102A   13286.01876240  .00000167  00000-0  88274-4 0  5078
2 09481 081.2175 243.0653 0022784 040.8070 026.4223 14.09533978901483
0 METEOR 1-26
1 09481U 76102A   13287.45236922  .00000208  00000-0  11166-3 0  5086
2 09481 081.2179 241.6666 0022734 037.0559 100.7083 14.09534285901684
0 METEOR 1-26
1 09481U 76102A   13288.85590745  .00000267  00000-0  14520-3 0  5090
2 09481 081.2184 240.2973 0022663 033.3422 022.4667 14.09534771901885
0 METEOR 1-26
1 09481U 76102A   13290.07675927  .00000284  00000-0  15506-3 0  5109
2 09481 081.2186 239.1063 0022614 030.1575 097.2042 14.09535180902056
0 METEOR 1-26
1 09481U 76102A   13291.42717618  .00000303  00000-0  16567-3 0  5114
2 09481 081.2188 237.7891 0022552 026.6031 109.4017 14.09535673902245
0 METEOR 1-26
1 09481U 76102A   13292.83141659  .00000330  00000-0  18135-3 0  5120
2 09481 081.2189 236.4195 0022487 022.9188 034.6980 14.09536255902445
0 METEOR 1-26
1 09481U 76102A   13294.19044965  .00000324  00000-0  17792-3 0  5135
2 09481 081.2190 235.0941 0022411 019.2354 090.7269 14.09537058902638
0 METEOR 1-26
1 09481U 76102A   13295.47408630  .00000324  00000-0  17783-3 0  5141
2 09481 081.2192 233.8421 0022345 015.7863 124.1507 14.09537992902815
